{
  "type": "FeatureCollection",
  "features": [
    {
      "type": "Feature",
      "properties": {
        "norad_id": 28890,
        "name": "BEIJING 1",
        "group": "dmc",
        "lat": -44.31931286244752,
        "lon": -62.46491784702359,
        "alt_km": 694.086200929697,
        "timestamp": "2025-12-24T03:53:29.308973+00:00",
        "meta_object_name": "BEIJING 1",
        "meta_object_id": "2005-043A",
        "meta_epoch": "2025-12-23T20:18:16.761312",
        "meta_mean_motion": 14.63375871,
        "meta_eccentricity": 0.0015801,
        "meta_inclination": 98.2664,
        "meta_ra_of_asc_node": 125.38,
        "meta_arg_of_pericenter": 108.5529,
        "meta_mean_anomaly": 251.7391,
        "meta_ephemeris_type": 0,
        "meta_classification_type": "U",
        "meta_norad_cat_id": 28890,
        "meta_element_set_no": 999,
        "meta_rev_at_epoch": 7500,
        "meta_bstar": 9.1668e-05,
        "meta_mean_motion_dot": 4.26e-06,
        "meta_mean_motion_ddot": 0,
        "tle_line1": "1 28890U 05043A   25357.84602733  .00000426  00000+0  91668-4 0  9999",
        "tle_line2": "2 28890  98.2664 125.3800 0015801 108.5529 251.7391 14.63375871 75003"
      },
      "geometry": {
        "type": "Point",
        "coordinates": [
          -62.46491784702359,
          -44.31931286244752
        ]
      }
    },
    {
      "type": "Feature",
      "properties": {
        "norad_id": 33320,
        "name": "HUANJING 1A (HJ-1A)",
        "group": "dmc",
        "lat": -5.7179160887697815,
        "lon": -13.244875546128661,
        "alt_km": 608.7815472277089,
        "timestamp": "2025-12-24T03:53:29.308997+00:00",
        "meta_object_name": "HUANJING 1A (HJ-1A)",
        "meta_object_id": "2008-041A",
        "meta_epoch": "2025-12-23T21:26:30.660288",
        "meta_mean_motion": 14.83426724,
        "meta_eccentricity": 0.0019322,
        "meta_inclination": 97.6545,
        "meta_ra_of_asc_node": 345.726,
        "meta_arg_of_pericenter": 359.0188,
        "meta_mean_anomaly": 1.0985,
        "meta_ephemeris_type": 0,
        "meta_classification_type": "U",
        "meta_norad_cat_id": 33320,
        "meta_element_set_no": 999,
        "meta_rev_at_epoch": 93241,
        "meta_bstar": 0.00015287,
        "meta_mean_motion_dot": 1.208e-05,
        "meta_mean_motion_ddot": 0,
        "tle_line1": "1 33320U 08041A   25357.89341042  .00001208  00000+0  15287-3 0  9993",
        "tle_line2": "2 33320  97.6545 345.7260 0019322 359.0188   1.0985 14.83426724932410"
      },
      "geometry": {
        "type": "Point",
        "coordinates": [
          -13.244875546128661,
          -5.7179160887697815
        ]
      }
    },
    {
      "type": "Feature",
      "properties": {
        "norad_id": 33321,
        "name": "HUANJING 1B (HJ-1B)",
        "group": "dmc",
        "lat": -12.004862802721505,
        "lon": 168.01480276429646,
        "alt_km": 648.2509371635633,
        "timestamp": "2025-12-24T03:53:29.309011+00:00",
        "meta_object_name": "HUANJING 1B (HJ-1B)",
        "meta_object_id": "2008-041B",
        "meta_epoch": "2025-12-23T20:33:08.880192",
        "meta_mean_motion": 14.8284703,
        "meta_eccentricity": 0.0037798,
        "meta_inclination": 97.6401,
        "meta_ra_of_asc_node": 349.3582,
        "meta_arg_of_pericenter": 40.4962,
        "meta_mean_anomaly": 319.9054,
        "meta_ephemeris_type": 0,
        "meta_classification_type": "U",
        "meta_norad_cat_id": 33321,
        "meta_element_set_no": 999,
        "meta_rev_at_epoch": 93242,
        "meta_bstar": 0.00011984,
        "meta_mean_motion_dot": 9.3e-06,
        "meta_mean_motion_ddot": 0,
        "tle_line1": "1 33321U 08041B   25357.85635278  .00000930  00000+0  11984-3 0  9998",
        "tle_line2": "2 33321  97.6401 349.3582 0037798  40.4962 319.9054 14.82847030932422"
      },
      "geometry": {
        "type": "Point",
        "coordinates": [
          168.01480276429646,
          -12.004862802721505
        ]
      }
    },
    {
      "type": "Feature",
      "properties": {
        "norad_id": 33446,
        "name": "YAOGAN-4",
        "group": "dmc",
        "lat": 78.6873732013489,
        "lon": 152.24576725788486,
        "alt_km": 622.5211998829654,
        "timestamp": "2025-12-24T03:53:29.309023+00:00",
        "meta_object_name": "YAOGAN-4",
        "meta_object_id": "2008-061A",
        "meta_epoch": "2025-12-23T12:52:24.131424",
        "meta_mean_motion": 14.82712321,
        "meta_eccentricity": 0.0013024,
        "meta_inclination": 97.9197,
        "meta_ra_of_asc_node": 287.5304,
        "meta_arg_of_pericenter": 285.0861,
        "meta_mean_anomaly": 74.8911,
        "meta_ephemeris_type": 0,
        "meta_classification_type": "U",
        "meta_norad_cat_id": 33446,
        "meta_element_set_no": 999,
        "meta_rev_at_epoch": 91963,
        "meta_bstar": 0.00016555,
        "meta_mean_motion_dot": 1.284e-05,
        "meta_mean_motion_ddot": 0,
        "tle_line1": "1 33446U 08061A   25357.53639041  .00001284  00000+0  16555-3 0  9997",
        "tle_line2": "2 33446  97.9197 287.5304 0013024 285.0861  74.8911 14.82712321919632"
      },
      "geometry": {
        "type": "Point",
        "coordinates": [
          152.24576725788486,
          78.6873732013489
        ]
      }
    },
    {
      "type": "Feature",
      "properties": {
        "norad_id": 35681,
        "name": "DEIMOS-1",
        "group": "dmc",
        "lat": -82.27948651929127,
        "lon": -111.46529815419626,
        "alt_km": 654.149142612996,
        "timestamp": "2025-12-24T03:53:29.309034+00:00",
        "meta_object_name": "DEIMOS-1",
        "meta_object_id": "2009-041A",
        "meta_epoch": "2025-12-23T20:09:30.873888",
        "meta_mean_motion": 14.7496982,
        "meta_eccentricity": 0.0002506,
        "meta_inclination": 97.7153,
        "meta_ra_of_asc_node": 157.9269,
        "meta_arg_of_pericenter": 62.0825,
        "meta_mean_anomaly": 298.0638,
        "meta_ephemeris_type": 0,
        "meta_classification_type": "U",
        "meta_norad_cat_id": 35681,
        "meta_element_set_no": 999,
        "meta_rev_at_epoch": 88103,
        "meta_bstar": 0.00015095,
        "meta_mean_motion_dot": 9.67e-06,
        "meta_mean_motion_ddot": 0,
        "tle_line1": "1 35681U 09041A   25357.83994067  .00000967  00000+0  15095-3 0  9999",
        "tle_line2": "2 35681  97.7153 157.9269 0002506  62.0825 298.0638 14.74969820881038"
      },
      "geometry": {
        "type": "Point",
        "coordinates": [
          -111.46529815419626,
          -82.27948651929127
        ]
      }
    },
    {
      "type": "Feature",
      "properties": {
        "norad_id": 35683,
        "name": "UK-DMC 2",
        "group": "dmc",
        "lat": -46.724123771873636,
        "lon": 141.17672316871136,
        "alt_km": 650.7147502128255,
        "timestamp": "2025-12-24T03:53:29.309045+00:00",
        "meta_object_name": "UK-DMC 2",
        "meta_object_id": "2009-041C",
        "meta_epoch": "2025-12-23T21:35:45.291264",
        "meta_mean_motion": 14.75645899,
        "meta_eccentricity": 0.000156,
        "meta_inclination": 97.8572,
        "meta_ra_of_asc_node": 132.4882,
        "meta_arg_of_pericenter": 91.2744,
        "meta_mean_anomaly": 268.8644,
        "meta_ephemeris_type": 0,
        "meta_classification_type": "U",
        "meta_norad_cat_id": 35683,
        "meta_element_set_no": 999,
        "meta_rev_at_epoch": 88071,
        "meta_bstar": 0.0002159,
        "meta_mean_motion_dot": 1.425e-05,
        "meta_mean_motion_ddot": 0,
        "tle_line1": "1 35683U 09041C   25357.89982976  .00001425  00000+0  21590-3 0  9990",
        "tle_line2": "2 35683  97.8572 132.4882 0001560  91.2744 268.8644 14.75645899880712"
      },
      "geometry": {
        "type": "Point",
        "coordinates": [
          141.17672316871136,
          -46.724123771873636
        ]
      }
    },
    {
      "type": "Feature",
      "properties": {
        "norad_id": 40715,
        "name": "DMC3-FM1",
        "group": "dmc",
        "lat": 44.111009730544076,
        "lon": -142.56701143986814,
        "alt_km": 610.2583561563133,
        "timestamp": "2025-12-24T03:53:29.309055+00:00",
        "meta_object_name": "DMC3-FM1",
        "meta_object_id": "2015-032A",
        "meta_epoch": "2025-12-23T21:13:28.691904",
        "meta_mean_motion": 14.85460202,
        "meta_eccentricity": 0.0004026,
        "meta_inclination": 97.6684,
        "meta_ra_of_asc_node": 224.6707,
        "meta_arg_of_pericenter": 275.4765,
        "meta_mean_anomaly": 84.5992,
        "meta_ephemeris_type": 0,
        "meta_classification_type": "U",
        "meta_norad_cat_id": 40715,
        "meta_element_set_no": 999,
        "meta_rev_at_epoch": 56388,
        "meta_bstar": 0.00013034,
        "meta_mean_motion_dot": 1.073e-05,
        "meta_mean_motion_ddot": 0,
        "tle_line1": "1 40715U 15032A   25357.88435986  .00001073  00000+0  13034-3 0  9995",
        "tle_line2": "2 40715  97.6684 224.6707 0004026 275.4765  84.5992 14.85460202563884"
      },
      "geometry": {
        "type": "Point",
        "coordinates": [
          -142.56701143986814,
          44.111009730544076
        ]
      }
    },
    {
      "type": "Feature",
      "properties": {
        "norad_id": 40716,
        "name": "DMC3-FM2",
        "group": "dmc",
        "lat": -73.66411614966661,
        "lon": -106.22120633345565,
        "alt_km": 616.2010666033229,
        "timestamp": "2025-12-24T03:53:29.309066+00:00",
        "meta_object_name": "DMC3-FM2",
        "meta_object_id": "2015-032B",
        "meta_epoch": "2025-12-23T21:45:51.259392",
        "meta_mean_motion": 14.85458928,
        "meta_eccentricity": 0.0004678,
        "meta_inclination": 97.674,
        "meta_ra_of_asc_node": 226.1438,
        "meta_arg_of_pericenter": 282.1118,
        "meta_mean_anomaly": 77.9573,
        "meta_ephemeris_type": 0,
        "meta_classification_type": "U",
        "meta_norad_cat_id": 40716,
        "meta_element_set_no": 999,
        "meta_rev_at_epoch": 56388,
        "meta_bstar": 7.5803e-05,
        "meta_mean_motion_dot": 6.02e-06,
        "meta_mean_motion_ddot": 0,
        "tle_line1": "1 40716U 15032B   25357.90684328  .00000602  00000+0  75803-4 0  9995",
        "tle_line2": "2 40716  97.6740 226.1438 0004678 282.1118  77.9573 14.85458928563889"
      },
      "geometry": {
        "type": "Point",
        "coordinates": [
          -106.22120633345565,
          -73.66411614966661
        ]
      }
    },
    {
      "type": "Feature",
      "properties": {
        "norad_id": 40717,
        "name": "DMC3-FM3",
        "group": "dmc",
        "lat": 11.42623001914339,
        "lon": 49.593348805875785,
        "alt_km": 614.7353418544044,
        "timestamp": "2025-12-24T03:53:29.309076+00:00",
        "meta_object_name": "DMC3-FM3",
        "meta_object_id": "2015-032C",
        "meta_epoch": "2025-12-23T20:40:08.092992",
        "meta_mean_motion": 14.85445109,
        "meta_eccentricity": 0.0004001,
        "meta_inclination": 97.6793,
        "meta_ra_of_asc_node": 227.7404,
        "meta_arg_of_pericenter": 282.9235,
        "meta_mean_anomaly": 77.1534,
        "meta_ephemeris_type": 0,
        "meta_classification_type": "U",
        "meta_norad_cat_id": 40717,
        "meta_element_set_no": 999,
        "meta_rev_at_epoch": 56388,
        "meta_bstar": 0.00011396,
        "meta_mean_motion_dot": 9.31e-06,
        "meta_mean_motion_ddot": 0,
        "tle_line1": "1 40717U 15032C   25357.86120478  .00000931  00000+0  11396-3 0  9993",
        "tle_line2": "2 40717  97.6793 227.7404 0004001 282.9235  77.1534 14.85445109563882"
      },
      "geometry": {
        "type": "Point",
        "coordinates": [
          49.593348805875785,
          11.42623001914339
        ]
      }
    }
  ]
}